# FY3D (LEO)
1 43010U 17072A   25300.85703266  .00000196  00000+0  11471-3 0  9994
2 43010  98.9825 266.4957 0001804  27.8131 332.3140 14.19662620412027

# FY3E (LEO)
1 49008U 21062A   25300.86988964  .00000046  00000+0  42206-4 0  9997
2 49008  98.7480 301.9326 0002438  57.6763 302.4649 14.19870686223616

# FY3F (LEO)
1 57490U 23111A   25300.85723772  .00000120  00000+0  77235-4 0  9994
2 57490  98.7135   9.8796 0001355  81.5471 278.5859 14.19875345115894

# FY3G (LEO)
1 56232U 23055A   25300.85134014  .00035318  00000+0  56650-3 0  9993
2 56232  49.9941 104.0649 0020484 297.6824  62.2064 15.52443407143896

# C2E1 (LEO)
1 44349U 19036L   25300.81295610  .00004795  00000+0  37111-3 0  9995
2 44349  23.9964 160.1095 0001184 112.2737 247.7890 14.97967436349793

# C2E2 (LEO)
1 44351U 19036N   25300.25763000  .00005048  00000+0  39220-3 0  9994
2 44351  23.9992 280.2682 0001292 120.7332 239.3296 14.97954958348643

# C2E3 (LEO)
1 44343U 19036E   25300.43986796  .00006744  00000+0  41480-3 0  9999
2 44343  24.0007 337.5939 0000914  65.8066 294.2533 15.07176982348051

# C2E4 (LEO)
1 44350U 19036M   25300.10178095  .00005269  00000+0  41049-3 0  9998
2 44350  23.9983 227.0017 0001243 110.4104 249.6531 14.97951662349109

# C2E5 (LEO)
1 44358U 19036V   25300.57073147  .00004784  00000+0  36676-3 0  9990
2 44358  24.0001  37.7538 0001043  22.1052 337.9494 14.98322707347451

# C2E6 (LEO)
1 44353U 19036Q   25300.79072498  .00005050  00000+0  39236-3 0  9999
2 44353  23.9974  97.4880 0001605 128.8981 231.1664 14.97948073346952

# G01 (GNSS)
1 62339U 24242A   25299.51530042 -.00000077  00000+0  00000+0 0  9997
2 62339  54.9373 343.6552 0009694 342.0382  19.5735  2.00566970  6577

# G02 (GNSS)
1 28474U 04045A   25299.96497565 -.00000064  00000+0  00000+0 0  9995
2 28474  55.2626 334.2886 0169298 307.3630  50.4485  2.00567431153748

# G03 (GNSS)
1 40294U 14068A   25297.59791060 -.00000070  00000+0  00000+0 0  9996
2 40294  56.8228  40.0465 0061220  69.8875 290.7820  2.00561963 80485

# G04 (GNSS)
1 43873U 18109A   25299.69084233  .00000045  00000+0  00000+0 0  9993
2 43873  55.5392 101.4046 0036497 193.5168 180.0181  2.00552514 50394

# G05 (GNSS)
1 35752U 09043A   25299.99270604 -.00000063  00000+0  00000+0 0  9990
2 35752  56.0600  36.6265 0053290  82.2780  69.0818  2.00568556118688

# G06 (GNSS)
1 39741U 14026A   25300.12548361 -.00000068  00000+0  00000+0 0  9990
2 39741  56.6003 340.5908 0037535 316.9842  42.7825  2.00564755 83868

# G07 (GNSS)
1 32711U 08012A   25300.30646682  .00000046  00000+0  00000+0 0  9998
2 32711  54.4696 159.2273 0201050 244.5061 113.4864  2.00563537129087

# G08 (GNSS)
1 40730U 15033A   25300.38346894 -.00000002  00000+0  00000+0 0  9992
2 40730  54.1704 276.6794 0108050  25.7913 334.7362  2.00567985 75326

# G09 (GNSS)
1 40105U 14045A   25299.71674356  .00000040  00000+0  00000+0 0  9992
2 40105  55.1989  97.7747 0033318 118.4633 241.8794  2.00569745 81398

# G10 (GNSS)
1 41019U 15062A   25300.44242882 -.00000056  00000+0  00000+0 0  9993
2 41019  56.8004  39.7930 0109105 228.7715 130.3065  2.00567112 73168

# G11 (GNSS)
1 48859U 21054A   25289.21780060 -.00000094  00000+0  00000+0 0  9998
2 48859  55.2757 342.2645 0024064 230.1083 138.8203  2.00556506 31868

# G12 (GNSS)
1 29601U 06052A   25298.58608200  .00000010  00000+0  00000+0 0  9995
2 29601  54.9833 223.3084 0086191  87.0702 273.9431  2.00570508138708

# G13 (GNSS)
1 24876U 97035A   25299.86613844  .00000054  00000+0  00000+0 0  9995
2 24876  55.8711 107.7022 0096211  56.8848 304.0536  2.00563327207270

# G14 (GNSS)
1 46826U 20078A   25289.20312859 -.00000051  00000+0  00000+0 0  9994
2 46826  54.0306 220.6753 0063294 203.5880 326.5084  2.00567133 36612

# G15 (GNSS)
1 32260U 07047A   25300.38630469  .00000032  00000+0  00000+0 0  9993
2 32260  53.9221  89.6727 0164691  84.5547 277.3221  2.00566482132144

# G16 (GNSS)
1 27663U 03005A   25300.78584652  .00000003  00000+0  00000+0 0  9998
2 27663  54.9372 224.2053 0145397  51.1535 319.7160  2.00573415166651

# G17 (GNSS)
1 28874U 05038A   25300.02226260 -.00000005  00000+0  00000+0 0  9999
2 28874  55.0729 282.5813 0133615 292.3787  67.7824  2.00551384147166

# G18 (GNSS)
1 44506U 19056A   25300.55405262 -.00000067  00000+0  00000+0 0  9991
2 44506  55.7379 340.3883 0057519 197.3033 334.5172  2.00565045 45404

# G19 (GNSS)
1 28190U 04009A   25299.07169808 -.00000012  00000+0  00000+0 0  9991
2 28190  55.0280 285.1397 0107912 166.7361 206.9989  2.00562703158256

# G20 (GNSS)
1 26360U 00025A   25300.78227124 -.00000072  00000+0  00000+0 0  9995
2 26360  55.0190  28.6971 0038158 237.6833 155.7123  2.00571508186613

# G21 (GNSS)
1 64202U 25116A   25300.24346377 -.00000058  00000+0  00000+0 0  9997
2 64202  55.0722  40.5197 0003396 300.7958  57.3248  2.00561534  3194

# G22 (GNSS)
1 26407U 00040A   25300.71049655  .00000003  00000+0  00000+0 0  9991
2 26407  54.9039 224.3983 0128592 300.8808 240.4414  2.00567358185285

# G23 (GNSS)
1 45854U 20041A   25300.39530608 -.00000059  00000+0  00000+0 0  9990
2 45854  56.5144  37.9914 0059277 201.4395 160.4424  2.00563071 39377

# G24 (GNSS)
1 38833U 12053A   25299.98541442  .00000047  00000+0  00000+0 0  9999
2 38833  53.5488 153.1541 0174022  63.1904 298.6651  2.00564642 94761

# G25 (GNSS)
1 36585U 10022A   25295.29050880  .00000000  00000+0  00000+0 0  9995
2 36585  54.3118 218.1477 0123582  64.5098  52.3813  2.00550543112824

# G26 (GNSS)
1 40534U 15013A   25300.72032444  .00000003  00000+0  00000+0 0  9993
2 40534  53.2076 213.7955 0104750  37.2644 323.5041  2.00565299 77163

# G27 (GNSS)
1 39166U 13023A   25299.35050031 -.00000006  00000+0  00000+0 0  9993
2 39166  54.6925 278.4938 0135099  48.2143 312.9238  2.00565424 91194

# G28 (GNSS)
1 55268U 23009A   25300.36514440  .00000048  00000+0  00000+0 0  9997
2 55268  55.1001 157.6675 0003576   0.7695 178.5301  2.00559589 20577

# G29 (GNSS)
1 32384U 07062A   25300.44760740 -.00000003  00000+0  00000+0 0  9999
2 32384  55.2217 283.5021 0032278 163.7782  10.0021  2.00575113130845

# G30 (GNSS)
1 39533U 14008A   25299.84537190  .00000043  00000+0  00000+0 0  9995
2 39533  53.6232 158.8377 0078399 226.1469 133.2900  2.00571764 85004

# G31 (GNSS)
1 29486U 06042A   25298.41711322  .00000042  00000+0  00000+0 0  9992
2 29486  54.6880 160.6590 0107051  50.5940 133.6390  2.00555995139688

# G32 (GNSS)
1 41328U 16007A   25300.52421756  .00000050  00000+0  00000+0 0  9997
2 41328  55.3819  98.6909 0090063 242.7038 116.3859  2.00563158 71175

# C06 (GNSS)
1 36828U 10036A   25300.56726622 -.00000083  00000+0  00000+0 0  9993
2 36828  54.2772 165.0677 0050914 216.2223 325.4574  1.00289933 55763

# C04 (GNSS)
1 37210U 10057A   25300.79023032 -.00000100  00000+0  00000+0 0  9992
2 37210   3.0659  70.0672 0009685 177.7661 233.0100  1.00273783 54967

# C07 (GNSS)
1 37256U 10068A   25295.62146750 -.00000196  00000+0  00000+0 0  9997
2 37256  47.9774 274.7760 0047363 217.7614 226.5684  1.00248503 54417

# C14 (GNSS)
1 38775U 12050B   25297.10722026 -.00000026  00000+0  00000+0 0  9990
2 38775  56.3364  70.7135 0010474 353.5933   6.3747  1.86230993 88913

# C01 (GNSS)
1 44231U 19027A   25300.85857567 -.00000235  00000+0  00000+0 0  9993
2 44231   1.5409  74.5260 0006934 259.3741 156.1225  1.00276411 23753

# C24 (GNSS)
1 43582U 18062B   25299.93169248  .00000020  00000+0  00000+0 0  9998
2 43582  54.0900 190.2256 0006968  36.5947 323.5367  1.86229920 49292

# C26 (GNSS)
1 43602U 18067A   25296.64724316  .00000032  00000+0  00000+0 0  9997
2 43602  54.1842 189.0634 0008670  35.0726 325.0702  1.86227770 48715

# C25 (GNSS)
1 43603U 18067B   25300.00338905  .00000020  00000+0  00000+0 0  9996
2 43603  54.1812 188.9137 0005263  29.2589 330.8556  1.86227209 48804

# C32 (GNSS)
1 43622U 18072A   25298.88636387 -.00000011  00000+0  00000+0 0  9991
2 43622  56.4177  70.4043 0004261 306.1158  53.8319  1.86231084 48299

# C33 (GNSS)
1 43623U 18072B   25300.36270472  .00000002  00000+0  00000+0 0  9997
2 43623  56.4215  70.3494 0002580   4.1115 355.8829  1.86231065 48315

# C35 (GNSS)
1 43647U 18078A   25300.52119529 -.00000032  00000+0  00000+0 0  9996
2 43647  54.3034 308.1372 0006243  17.5208 342.5245  1.86232382 47828

# C34 (GNSS)
1 43648U 18078B   25299.03953964 -.00000042  00000+0  00000+0 0  9990
2 43648  54.3003 308.1901 0002793  16.5386 343.4926  1.86232355 47810

# C59 (GNSS)
1 43683U 18085A   25299.78729147 -.00000265  00000+0  00000+0 0  9990
2 43683   2.9854 103.9088 0002875  12.5925 342.3179  1.00266921 25710

# C36 (GNSS)
1 43706U 18093A   25298.93864250  .00000023  00000+0  00000+0 0  9997
2 43706  54.1739 190.2452 0007453 301.5474 245.0422  1.86228418 47175

# C37 (GNSS)
1 43707U 18093B   25299.05856935  .00000023  00000+0  00000+0 0  9993
2 43707  54.1745 190.2328 0006881 339.3760  20.6815  1.86230098 47176

# C38 (GNSS)
1 44204U 19023A   25300.79024950 -.00000208  00000+0  00000+0 0  9994
2 44204  58.3693  40.0546 0026507 218.6991 179.2667  1.00258625  4882

# C39 (GNSS)
1 44337U 19035A   25300.87084275 -.00000091  00000+0  00000+0 0  9999
2 44337  55.2161 160.9065 0037302 202.3279 105.5016  1.00285791 23332

# C46 (GNSS)
1 44542U 19061A   25298.05619706  .00000027  00000+0  00000+0 0  9993
2 44542  54.4013 190.6596 0009221  15.2716 344.8415  1.86229469 41416

# C45 (GNSS)
1 44543U 19061B   25298.45739420  .00000025  00000+0  00000+0 0  9992
2 44543  54.3990 190.6145 0006558  25.9781 155.9110  1.86229590 41429

# C40 (GNSS)
1 44709U 19073A   25300.36078374 -.00000167  00000+0  00000+0 0  9995
2 44709  55.2042 283.4153 0045069 191.9481 167.9049  1.00257619 22121

# C44 (GNSS)
1 44793U 19078A   25298.97069858 -.00000043  00000+0  00000+0 0  9996
2 44793  54.1511 308.0624 0004873  22.6667 337.3765  1.86232203 40285

# C43 (GNSS)
1 44794U 19078B   25299.10727420 -.00000042  00000+0  00000+0 0  9998
2 44794  54.1244 308.0235 0003087   7.4621 352.5642  1.86227870 40292
